STARLINK-11168 [DTC]    
1 60183U 24124A   25172.82655567  .00000468  00000+0  87087-5 0  9994
2 60183  53.1588   7.1392 0000761  85.2883 274.8222 15.69723574 56760
STARLINK-11187 [DTC]    
1 60184U 24124B   25172.24863473 -.00001231  00000+0 -53044-5 0  9995
2 60184  53.1585   9.9325 0000678  89.8137 270.2959 15.69714454 55474
STARLINK-11180 [DTC]    
1 60185U 24124C   25172.81675834 -.00001048  00000+0 -38065-5 0  9993
2 60185  53.1580   7.0769 0000434  80.8048 279.3019 15.69704986 56751
STARLINK-11197 [DTC]    
1 60186U 24124D   25172.81184865  .00001608  00000+0  18117-4 0  9998
2 60186  53.1576   7.0413 0000671  91.8465 268.2629 15.69714147 56744
STARLINK-11194 [DTC]    
1 60187U 24124E   25172.80694886 -.00001367  00000+0 -64395-5 0  9991
2 60187  53.1584   7.0100 0000575  70.0454 290.0626 15.69700709 56757
STARLINK-11189 [DTC]    
1 60188U 24124F   25172.54746468 -.00000947  00000+0 -29646-5 0  9990
2 60188  53.1583   8.9656 0000897 288.4456  71.6464 15.69701075 56690
STARLINK-11183 [DTC]    
1 60189U 24124G   25172.54256076  .00000009  00000+0  49293-5 0  9999
2 60189  53.1584   8.9334 0000664  70.9698 289.1392 15.69703309 56473
STARLINK-11179 [DTC]    
1 60190U 24124H   25172.53765918 -.00001012  00000+0 -35126-5 0  9997
2 60190  53.1586   8.9002 0000355 135.1251 224.9796 15.69697290 55515
STARLINK-11175 [DTC]    
1 60191U 24124J   25172.53276525  .00002304  00000+0  23883-4 0  9998
2 60191  53.1582   8.8688 0000546 154.9265 205.1779 15.69692184 56696
STARLINK-11173 [DTC]    
1 60192U 24124K   25172.27316799 -.00000729  00000+0 -11643-5 0  9991
2 60192  53.1595  10.0924 0000599  79.4578 280.6507 15.69704013 55472
STARLINK-11172 [DTC]    
1 60193U 24124L   25172.52293964 -.00000192  00000+0  32726-5 0  9996
2 60193  53.1580   8.8028 0000758  82.9822 277.1282 15.69699997 55515
STARLINK-11152 [DTC]    
1 60194U 24124M   25172.83637567 -.00002429  00000+0 -15194-4 0  9997
2 60194  53.1582   7.2013 0000550  61.9180 298.1893 15.69727012 56757
STARLINK-11193 [DTC]    
1 60195U 24124N   25171.87643260 -.00000393  00000+0  16032-5 0  9998
2 60195  53.1585  11.8744 0000559  77.5921 282.5159 15.69705072 56606
STARLINK-31869          
1 60196U 24124P   25172.80109863  .00001473  00000+0  61873-4 0  9990
2 60196  53.1602  94.2196 0001086  74.6754 285.4367 15.30186344 55437
