[
  {
    "OBJECT_NAME": "STARLINK-11168 [DTC]",
    "OBJECT_ID": "2024-124A",
    "EPOCH": "2025-06-21T19:50:14.409888",
    "MEAN_MOTION": 15.69723574,
    "ECCENTRICITY": 7.61e-05,
    "INCLINATION": 53.1588,
    "RA_OF_ASC_NODE": 7.1392,
    "ARG_OF_PERICENTER": 85.2883,
    "MEAN_ANOMALY": 274.8222,
    "EPHEMERIS_TYPE": 0,
    "CLASSIFICATION_TYPE": "U",
    "NORAD_CAT_ID": 60183,
    "ELEMENT_SET_NO": 999,
    "REV_AT_EPOCH": 5676,
    "BSTAR": 8.7087e-06,
    "MEAN_MOTION_DOT": 4.68e-06,
    "MEAN_MOTION_DDOT": 0
  },
  {
    "OBJECT_NAME": "STARLINK-11187 [DTC]",
    "OBJECT_ID": "2024-124B",
    "EPOCH": "2025-06-21T05:58:02.040672",
    "MEAN_MOTION": 15.69714454,
    "ECCENTRICITY": 6.78e-05,
    "INCLINATION": 53.1585,
    "RA_OF_ASC_NODE": 9.9325,
    "ARG_OF_PERICENTER": 89.8137,
    "MEAN_ANOMALY": 270.2959,
    "EPHEMERIS_TYPE": 0,
    "CLASSIFICATION_TYPE": "U",
    "NORAD_CAT_ID": 60184,
    "ELEMENT_SET_NO": 999,
    "REV_AT_EPOCH": 5547,
    "BSTAR": -5.3044e-06,
    "MEAN_MOTION_DOT": -1.231e-05,
    "MEAN_MOTION_DDOT": 0
  },
  {
    "OBJECT_NAME": "STARLINK-11180 [DTC]",
    "OBJECT_ID": "2024-124C",
    "EPOCH": "2025-06-21T19:36:07.920576",
    "MEAN_MOTION": 15.69704986,
    "ECCENTRICITY": 4.34e-05,
    "INCLINATION": 53.158,
    "RA_OF_ASC_NODE": 7.0769,
    "ARG_OF_PERICENTER": 80.8048,
    "MEAN_ANOMALY": 279.3019,
    "EPHEMERIS_TYPE": 0,
    "CLASSIFICATION_TYPE": "U",
    "NORAD_CAT_ID": 60185,
    "ELEMENT_SET_NO": 999,
    "REV_AT_EPOCH": 5675,
    "BSTAR": -3.8065e-06,
    "MEAN_MOTION_DOT": -1.048e-05,
    "MEAN_MOTION_DDOT": 0
  },
  {
    "OBJECT_NAME": "STARLINK-11197 [DTC]",
    "OBJECT_ID": "2024-124D",
    "EPOCH": "2025-06-21T19:29:03.723360",
    "MEAN_MOTION": 15.69714147,
    "ECCENTRICITY": 6.71e-05,
    "INCLINATION": 53.1576,
    "RA_OF_ASC_NODE": 7.0413,
    "ARG_OF_PERICENTER": 91.8465,
    "MEAN_ANOMALY": 268.2629,
    "EPHEMERIS_TYPE": 0,
    "CLASSIFICATION_TYPE": "U",
    "NORAD_CAT_ID": 60186,
    "ELEMENT_SET_NO": 999,
    "REV_AT_EPOCH": 5674,
    "BSTAR": 1.8117e-05,
    "MEAN_MOTION_DOT": 1.608e-05,
    "MEAN_MOTION_DDOT": 0
  },
  {
    "OBJECT_NAME": "STARLINK-11194 [DTC]",
    "OBJECT_ID": "2024-124E",
    "EPOCH": "2025-06-21T19:22:00.381504",
    "MEAN_MOTION": 15.69700709,
    "ECCENTRICITY": 5.75e-05,
    "INCLINATION": 53.1584,
    "RA_OF_ASC_NODE": 7.01,
    "ARG_OF_PERICENTER": 70.0454,
    "MEAN_ANOMALY": 290.0626,
    "EPHEMERIS_TYPE": 0,
    "CLASSIFICATION_TYPE": "U",
    "NORAD_CAT_ID": 60187,
    "ELEMENT_SET_NO": 999,
    "REV_AT_EPOCH": 5675,
    "BSTAR": -6.4395e-06,
    "MEAN_MOTION_DOT": -1.367e-05,
    "MEAN_MOTION_DDOT": 0
  },
  {
    "OBJECT_NAME": "STARLINK-11189 [DTC]",
    "OBJECT_ID": "2024-124F",
    "EPOCH": "2025-06-21T13:08:20.948352",
    "MEAN_MOTION": 15.69701075,
    "ECCENTRICITY": 8.97e-05,
    "INCLINATION": 53.1583,
    "RA_OF_ASC_NODE": 8.9656,
    "ARG_OF_PERICENTER": 288.4456,
    "MEAN_ANOMALY": 71.6464,
    "EPHEMERIS_TYPE": 0,
    "CLASSIFICATION_TYPE": "U",
    "NORAD_CAT_ID": 60188,
    "ELEMENT_SET_NO": 999,
    "REV_AT_EPOCH": 5669,
    "BSTAR": -2.9646e-06,
    "MEAN_MOTION_DOT": -9.47e-06,
    "MEAN_MOTION_DDOT": 0
  },
  {
    "OBJECT_NAME": "STARLINK-11183 [DTC]",
    "OBJECT_ID": "2024-124G",
    "EPOCH": "2025-06-21T13:01:17.249664",
    "MEAN_MOTION": 15.69703309,
    "ECCENTRICITY": 6.64e-05,
    "INCLINATION": 53.1584,
    "RA_OF_ASC_NODE": 8.9334,
    "ARG_OF_PERICENTER": 70.9698,
    "MEAN_ANOMALY": 289.1392,
    "EPHEMERIS_TYPE": 0,
    "CLASSIFICATION_TYPE": "U",
    "NORAD_CAT_ID": 60189,
    "ELEMENT_SET_NO": 999,
    "REV_AT_EPOCH": 5647,
    "BSTAR": 4.9293e-06,
    "MEAN_MOTION_DOT": 9e-08,
    "MEAN_MOTION_DDOT": 0
  },
  {
    "OBJECT_NAME": "STARLINK-11179 [DTC]",
    "OBJECT_ID": "2024-124H",
    "EPOCH": "2025-06-21T12:54:13.753152",
    "MEAN_MOTION": 15.6969729,
    "ECCENTRICITY": 3.55e-05,
    "INCLINATION": 53.1586,
    "RA_OF_ASC_NODE": 8.9002,
    "ARG_OF_PERICENTER": 135.1251,
    "MEAN_ANOMALY": 224.9796,
    "EPHEMERIS_TYPE": 0,
    "CLASSIFICATION_TYPE": "U",
    "NORAD_CAT_ID": 60190,
    "ELEMENT_SET_NO": 999,
    "REV_AT_EPOCH": 5551,
    "BSTAR": -3.5126e-06,
    "MEAN_MOTION_DOT": -1.012e-05,
    "MEAN_MOTION_DDOT": 0
  },
  {
    "OBJECT_NAME": "STARLINK-11175 [DTC]",
    "OBJECT_ID": "2024-124J",
    "EPOCH": "2025-06-21T12:47:10.917600",
    "MEAN_MOTION": 15.69692184,
    "ECCENTRICITY": 5.46e-05,
    "INCLINATION": 53.1582,
    "RA_OF_ASC_NODE": 8.8688,
    "ARG_OF_PERICENTER": 154.9265,
    "MEAN_ANOMALY": 205.1779,
    "EPHEMERIS_TYPE": 0,
    "CLASSIFICATION_TYPE": "U",
    "NORAD_CAT_ID": 60191,
    "ELEMENT_SET_NO": 999,
    "REV_AT_EPOCH": 5669,
    "BSTAR": 2.3883e-05,
    "MEAN_MOTION_DOT": 2.304e-05,
    "MEAN_MOTION_DDOT": 0
  },
  {
    "OBJECT_NAME": "STARLINK-11173 [DTC]",
    "OBJECT_ID": "2024-124K",
    "EPOCH": "2025-06-21T06:33:21.714336",
    "MEAN_MOTION": 15.69704013,
    "ECCENTRICITY": 5.99e-05,
    "INCLINATION": 53.1595,
    "RA_OF_ASC_NODE": 10.0924,
    "ARG_OF_PERICENTER": 79.4578,
    "MEAN_ANOMALY": 280.6507,
    "EPHEMERIS_TYPE": 0,
    "CLASSIFICATION_TYPE": "U",
    "NORAD_CAT_ID": 60192,
    "ELEMENT_SET_NO": 999,
    "REV_AT_EPOCH": 5547,
    "BSTAR": -1.1643e-06,
    "MEAN_MOTION_DOT": -7.29e-06,
    "MEAN_MOTION_DDOT": 0
  },
  {
    "OBJECT_NAME": "STARLINK-11172 [DTC]",
    "OBJECT_ID": "2024-124L",
    "EPOCH": "2025-06-21T12:33:01.984896",
    "MEAN_MOTION": 15.69699997,
    "ECCENTRICITY": 7.58e-05,
    "INCLINATION": 53.158,
    "RA_OF_ASC_NODE": 8.8028,
    "ARG_OF_PERICENTER": 82.9822,
    "MEAN_ANOMALY": 277.1282,
    "EPHEMERIS_TYPE": 0,
    "CLASSIFICATION_TYPE": "U",
    "NORAD_CAT_ID": 60193,
    "ELEMENT_SET_NO": 999,
    "REV_AT_EPOCH": 5551,
    "BSTAR": 3.2726e-06,
    "MEAN_MOTION_DOT": -1.92e-06,
    "MEAN_MOTION_DDOT": 0
  },
  {
    "OBJECT_NAME": "STARLINK-11152 [DTC]",
    "OBJECT_ID": "2024-124M",
    "EPOCH": "2025-06-21T20:04:22.857888",
    "MEAN_MOTION": 15.69727012,
    "ECCENTRICITY": 5.5e-05,
    "INCLINATION": 53.1582,
    "RA_OF_ASC_NODE": 7.2013,
    "ARG_OF_PERICENTER": 61.918,
    "MEAN_ANOMALY": 298.1893,
    "EPHEMERIS_TYPE": 0,
    "CLASSIFICATION_TYPE": "U",
    "NORAD_CAT_ID": 60194,
    "ELEMENT_SET_NO": 999,
    "REV_AT_EPOCH": 5675,
    "BSTAR": -1.5194e-05,
    "MEAN_MOTION_DOT": -2.429e-05,
    "MEAN_MOTION_DDOT": 0
  },
  {
    "OBJECT_NAME": "STARLINK-11193 [DTC]",
    "OBJECT_ID": "2024-124N",
    "EPOCH": "2025-06-20T21:02:03.776640",
    "MEAN_MOTION": 15.69705072,
    "ECCENTRICITY": 5.59e-05,
    "INCLINATION": 53.1585,
    "RA_OF_ASC_NODE": 11.8744,
    "ARG_OF_PERICENTER": 77.5921,
    "MEAN_ANOMALY": 282.5159,
    "EPHEMERIS_TYPE": 0,
    "CLASSIFICATION_TYPE": "U",
    "NORAD_CAT_ID": 60195,
    "ELEMENT_SET_NO": 999,
    "REV_AT_EPOCH": 5660,
    "BSTAR": 1.6032e-06,
    "MEAN_MOTION_DOT": -3.93e-06,
    "MEAN_MOTION_DDOT": 0
  },
  {
    "OBJECT_NAME": "STARLINK-31869",
    "OBJECT_ID": "2024-124P",
    "EPOCH": "2025-06-21T19:13:34.921632",
    "MEAN_MOTION": 15.30186344,
    "ECCENTRICITY": 0.0001086,
    "INCLINATION": 53.1602,
    "RA_OF_ASC_NODE": 94.2196,
    "ARG_OF_PERICENTER": 74.6754,
    "MEAN_ANOMALY": 285.4367,
    "EPHEMERIS_TYPE": 0,
    "CLASSIFICATION_TYPE": "U",
    "NORAD_CAT_ID": 60196,
    "ELEMENT_SET_NO": 999,
    "REV_AT_EPOCH": 5543,
    "BSTAR": 6.1873e-05,
    "MEAN_MOTION_DOT": 1.473e-05,
    "MEAN_MOTION_DDOT": 0
  }
]